{
    "links": {
        "self": "http://www.neowsapp.com/rest/v1/neo/54016530?api_key=iIulBulltgU6a56xZRHN4H3l9WmuAYTsLGpBGhQ2"
    },
    "id": "54016530",
    "neo_reference_id": "54016530",
    "name": "(2020 GB3)",
    "designation": "2020 GB3",
    "nasa_jpl_url": "http://ssd.jpl.nasa.gov/sbdb.cgi?sstr=54016530",
    "absolute_magnitude_h": 26.491,
    "estimated_diameter": {
        "kilometers": {
            "estimated_diameter_min": 0.0133768845,
            "estimated_diameter_max": 0.029911623
        },
        "meters": {
            "estimated_diameter_min": 13.3768844799,
            "estimated_diameter_max": 29.9116230243
        },
        "miles": {
            "estimated_diameter_min": 0.0083120081,
            "estimated_diameter_max": 0.0185862151
        },
        "feet": {
            "estimated_diameter_min": 43.8874176772,
            "estimated_diameter_max": 98.1352492831
        }
    },
    "is_potentially_hazardous_asteroid": false,
    "close_approach_data": [
        {
            "close_approach_date": "2020-04-22",
            "close_approach_date_full": "2020-Apr-22 14:36",
            "epoch_date_close_approach": 1587566160000,
            "relative_velocity": {
                "kilometers_per_second": "5.3546619857",
                "kilometers_per_hour": "19276.7831484294",
                "miles_per_hour": "11977.843395756"
            },
            "miss_distance": {
                "astronomical": "0.0341329648",
                "lunar": "13.2777233072",
                "kilometers": "5106218.830864976",
                "miles": "3172857.2541536288"
            },
            "orbiting_body": "Earth"
        }
    ],
    "orbital_data": {
        "orbit_id": "2",
        "orbit_determination_date": "2020-04-19 06:37:10",
        "first_observation_date": "2020-04-15",
        "last_observation_date": "2020-04-19",
        "data_arc_in_days": 4,
        "observations_used": 26,
        "orbit_uncertainty": "8",
        "minimum_orbit_intersection": ".0254532",
        "jupiter_tisserand_invariant": "4.824",
        "epoch_osculation": "2458955.5",
        "eccentricity": ".245264425467093",
        "semi_major_axis": "1.355118972318405",
        "inclination": "6.120314497832448",
        "ascending_node_longitude": "30.32810094934306",
        "orbital_period": "576.188472531112",
        "perihelion_distance": "1.022756496133174",
        "perihelion_argument": "200.6395341957674",
        "aphelion_distance": "1.687481448503637",
        "perihelion_time": "2458978.320023252207",
        "mean_anomaly": "345.7421507676016",
        "mean_motion": ".6247955611096703",
        "equinox": "J2000",
        "orbit_class": {
            "orbit_class_type": "AMO",
            "orbit_class_description": "Near-Earth asteroid orbits similar to that of 1221 Amor",
            "orbit_class_range": "1.017 AU < q (perihelion) < 1.3 AU"
        }
    },
    "is_sentry_object": false
}